NORAD_CAT_ID,OBJECT_NAME,OBJECT_TYPE,EPOCH,MEAN_MOTION,ECCENTRICITY,INCLINATION,RA_OF_ASC_NODE,ARG_OF_PERICENTER,MEAN_ANOMALY,BSTAR,MEAN_MOTION_DOT,MEAN_MOTION_DDOT,TLE_LINE0,TLE_LINE1,TLE_LINE2,SEMIMAJOR_AXIS,PERIOD,APOGEE,PERIGEE,DECAYED
51856.0,STARLINK-3568,PAYLOAD,2023-08-27 01:48:03,15.08871023,0.0001287,53.2152,214.3778,86.866,273.2479,-0.00040066,-6.664e-05,0.0,0 STARLINK-3568,1 51856U 22022E   23239.07503642 -.00006664  00000-0 -40066-3 0  9992,2 51856  53.2152 214.3778 0001287  86.8660 273.2479 15.08871023 83313,6917.786,95.436,540.541,538.76,0.0
51856.0,STARLINK-3568,PAYLOAD,2023-08-27 04:58:49,15.08841205,0.0001364,53.2157,213.7824,90.8933,269.2215,3.1774e-05,2.18e-06,0.0,0 STARLINK-3568,1 51856U 22022E   23239.20752055  .00000218  00000-0  31774-4 0  9995,2 51856  53.2157 213.7824 0001364  90.8933 269.2215 15.08841205 83331,6917.877,95.437,540.685,538.798,0.0
51856.0,STARLINK-3568,PAYLOAD,2023-08-27 22:28:04,15.08839991,0.0001332,53.2156,210.5121,93.2253,266.8891,1.3856e-05,-6.7e-07,0.0,0 STARLINK-3568,1 51856U 22022E   23239.93616211 -.00000067  00000-0  13856-4 0  9992,2 51856  53.2156 210.5121 0001332  93.2253 266.8891 15.08839991 83446,6917.88,95.438,540.667,538.824,0.0
51856.0,STARLINK-3568,PAYLOAD,2023-08-28 04:49:36,15.08842823,0.000131,53.2157,209.3226,96.9319,263.1822,3.3138e-05,2.4e-06,0.0,0 STARLINK-3568,1 51856U 22022E   23240.20111924  .00000240  00000-0  33138-4 0  9992,2 51856  53.2157 209.3226 0001310  96.9319 263.1822 15.08842823 83484,6917.872,95.437,540.643,538.831,0.0
51856.0,STARLINK-3568,PAYLOAD,2023-08-29 01:29:38,15.08834461,0.0001286,53.2157,205.457,96.2413,263.8725,1.0633e-05,-1.19e-06,0.0,0 STARLINK-3568,1 51856U 22022E   23241.06224670 -.00000119  00000-0  10633-4 0  9991,2 51856  53.2157 205.4570 0001286  96.2413 263.8725 15.08834461 83616,6917.897,95.438,540.652,538.873,0.0
51856.0,STARLINK-3568,PAYLOAD,2023-08-29 03:05:01,15.08834963,0.0001286,53.2157,205.1597,96.0896,264.0242,1.4339e-05,-6e-07,0.0,0 STARLINK-3568,1 51856U 22022E   23241.12848646 -.00000060  00000-0  14339-4 0  9995,2 51856  53.2157 205.1597 0001286  96.0896 264.0242 15.08834963 83620,6917.896,95.438,540.65,538.871,0.0
51856.0,STARLINK-3568,PAYLOAD,2023-08-30 07:41:57,15.08843157,0.0001262,53.2158,199.807,94.6829,265.4307,5.5813e-05,6.01e-06,0.0,0 STARLINK-3568,1 51856U 22022E   23242.32080283  .00000601  00000-0  55813-4 0  9995,2 51856  53.2158 199.8070 0001262  94.6829 265.4307 15.08843157 83802,6917.871,95.437,540.609,538.863,0.0
51856.0,STARLINK-3568,PAYLOAD,2023-08-30 14:03:30,15.08839866,0.0001248,53.2159,198.6172,92.8344,267.2791,-1.0055e-05,-4.48e-06,0.0,0 STARLINK-3568,1 51856U 22022E   23242.58576688 -.00000448  00000-0 -10055-4 0  9992,2 51856  53.2159 198.6172 0001248  92.8344 267.2791 15.08839866 83842,6917.881,95.438,540.609,538.882,0.0
51856.0,STARLINK-3568,PAYLOAD,2023-08-31 05:57:21,15.08835291,0.0001249,53.2159,195.6438,92.8633,267.2502,4.5704e-05,4.4e-06,0.0,0 STARLINK-3568,1 51856U 22022E   23243.24817022  .00000440  00000-0  45704-4 0  9995,2 51856  53.2159 195.6438 0001249  92.8633 267.2502 15.08835291 83945,6917.895,95.438,540.624,538.896,0.0
51856.0,STARLINK-3568,PAYLOAD,2023-08-31 23:26:36,15.08834942,0.0001233,53.2162,192.3727,95.2222,264.8911,1.9797e-05,2.7e-07,0.0,0 STARLINK-3568,1 51856U 22022E   23243.97681324  .00000027  00000-0  19797-4 0  9993,2 51856  53.2162 192.3727 0001233  95.2222 264.8911 15.08834942 84050,6917.896,95.438,540.614,538.908,0.0
51856.0,STARLINK-3568,PAYLOAD,2023-09-01 05:48:09,15.08818216,0.0001304,53.2163,191.1822,105.0589,255.0548,0.00029016,4.33e-05,0.0,0 STARLINK-3568,1 51856U 22022E   23244.24177646  .00004330  00000-0  29016-3 0  9996,2 51856  53.2163 191.1822 0001304 105.0589 255.0548 15.08818216 84097,6917.947,95.439,540.714,538.91,0.0
51856.0,STARLINK-3568,PAYLOAD,2023-09-01 13:45:04,15.08844263,0.0001287,53.2165,189.6958,90.5908,269.5232,3.2573e-05,2.31e-06,0.0,0 STARLINK-3568,1 51856U 22022E   23244.57296760  .00000231  00000-0  32573-4 0  9990,2 51856  53.2165 189.6958 0001287  90.5908 269.5232 15.08844263 84141,6917.867,95.437,540.623,538.842,0.0
51856.0,STARLINK-3568,PAYLOAD,2023-09-01 20:06:36,15.08852328,9.17e-05,53.2162,188.5066,116.0222,244.0864,-7.2554e-05,-1.443e-05,0.0,0 STARLINK-3568,1 51856U 22022E   23244.83792193 -.00001443  00000-0 -72554-4 0  9991,2 51856  53.2162 188.5066 0000917 116.0222 244.0864 15.08852328 84182,6917.843,95.437,540.342,539.073,0.0
51856.0,STARLINK-3568,PAYLOAD,2023-09-01 23:17:22,15.08856879,8.61e-05,53.2163,187.9129,89.4538,270.6553,-8.0615e-05,-1.571e-05,0.0,0 STARLINK-3568,1 51856U 22022E   23244.97040025 -.00001571  00000-0 -80615-4 0  9995,2 51856  53.2163 187.9129 0000861  89.4538 270.6553 15.08856879 84205,6917.829,95.436,540.289,539.098,0.0
51856.0,STARLINK-3568,PAYLOAD,2023-09-02 19:57:23,15.08845252,0.000112,53.2164,184.0468,87.7318,272.3803,4.9548e-05,5.01e-06,0.0,0 STARLINK-3568,1 51856U 22022E   23245.83152547  .00000501  00000-0  49548-4 0  9994,2 51856  53.2164 184.0468 0001120  87.7318 272.3803 15.08845252 84330,6917.864,95.437,540.504,538.955,0.0
51856.0,STARLINK-3568,PAYLOAD,2023-09-03 02:18:56,15.08843358,0.0001235,53.2164,182.8571,86.2106,273.9028,3.5656e-05,2.8e-06,0.0,0 STARLINK-3568,1 51856U 22022E   23246.09648636  .00000280  00000-0  35656-4 0  9991,2 51856  53.2164 182.8571 0001235  86.2106 273.9028 15.08843358 84372,6917.87,95.437,540.589,538.881,0.0
51856.0,STARLINK-3568,PAYLOAD,2023-09-03 13:26:38,15.08842362,0.0001182,53.2161,180.775,83.9454,276.1673,1.8521e-05,7e-08,0.0,0 STARLINK-3568,1 51856U 22022E   23246.56016658  .00000007  00000-0  18521-4 0  9995,2 51856  53.2161 180.7750 0001182  83.9454 276.1673 15.08842362 84449,6917.873,95.437,540.556,538.92,0.0
51856.0,STARLINK-3568,PAYLOAD,2023-09-04 02:09:44,15.08835786,0.0001322,53.2163,178.3963,94.6615,265.4528,-5.047e-05,-1.091e-05,0.0,0 STARLINK-3568,1 51856U 22022E   23247.09009392 -.00001091  00000-0 -50470-4 0  9996,2 51856  53.2163 178.3963 0001322  94.6615 265.4528 15.08835786 84525,6917.893,95.438,540.673,538.844,0.0
51856.0,STARLINK-3568,PAYLOAD,2023-09-04 06:55:53,15.0883973,0.0001343,53.2168,177.5043,95.0558,265.0587,-1.0551e-06,-3.05e-06,0.0,0 STARLINK-3568,1 51856U 22022E   23247.28881035 -.00000305  00000-0 -10551-5 0  9993,2 51856  53.2168 177.5043 0001343  95.0558 265.0587 15.08839730 84551,6917.881,95.438,540.675,538.817,0.0
51856.0,STARLINK-3568,PAYLOAD,2023-09-05 05:11:17,15.08838666,0.0001457,53.2172,173.3403,96.7494,263.3664,7.7959e-06,-1.64e-06,0.0,0 STARLINK-3568,1 51856U 22022E   23248.21617230 -.00000164  00000-0  77959-5 0  9998,2 51856  53.2172 173.3403 0001457  96.7494 263.3664 15.08838666 84692,6917.884,95.438,540.757,538.742,0.0
51856.0,STARLINK-3568,PAYLOAD,2023-09-06 01:51:18,15.08796426,0.0001483,53.2168,169.4748,96.2513,263.8648,0.00054475,8.382e-05,0.0,0 STARLINK-3568,1 51856U 22022E   23249.07730247  .00008382  00000-0  54475-3 0  9992,2 51856  53.2168 169.4748 0001483  96.2513 263.8648 15.08796426 84820,6918.014,95.44,540.905,538.853,0.0
51856.0,STARLINK-3568,PAYLOAD,2023-09-06 17:45:09,15.08837433,0.0001309,53.2167,166.5007,96.575,263.5391,2.7846e-06,-2.44e-06,0.0,0 STARLINK-3568,1 51856U 22022E   23249.73969793 -.00000244  00000-0  27846-5 0  9999,2 51856  53.2167 166.5007 0001309  96.5750 263.5391 15.08837433 84925,6917.888,95.438,540.659,538.848,0.0
51856.0,STARLINK-3568,PAYLOAD,2023-09-07 03:17:28,15.08842104,0.0001242,53.2165,164.7168,97.5811,262.5323,3.8346e-05,3.22e-06,0.0,0 STARLINK-3568,1 51856U 22022E   23250.13713473  .00000322  00000-0  38346-4 0  9999,2 51856  53.2165 164.7168 0001242  97.5811 262.5323 15.08842104 84987,6917.874,95.437,540.598,538.88,0.0
51856.0,STARLINK-3568,PAYLOAD,2023-09-07 17:35:57,15.08835766,0.0001475,53.2169,162.0426,86.676,273.4401,3.5495e-05,2.77e-06,0.0,0 STARLINK-3568,1 51856U 22022E   23250.73330051  .00000277  00000-0  35495-4 0  9993,2 51856  53.2169 162.0426 0001475  86.6760 273.4401 15.08835766 85074,6917.893,95.438,540.779,538.738,0.0
51856.0,STARLINK-3568,PAYLOAD,2023-09-08 03:08:15,15.08844088,0.000112,53.2157,160.2539,72.1285,287.9829,6.1152e-05,6.86e-06,0.0,0 STARLINK-3568,1 51856U 22022E   23251.13073547  .00000686  00000-0  61152-4 0  9995,2 51856  53.2157 160.2539 0001120  72.1285 287.9829 15.08844088 85133,6917.868,95.437,540.508,538.958,0.0
51856.0,STARLINK-3568,PAYLOAD,2023-09-09 10:55:58,15.08838617,0.0001453,53.2169,154.3102,82.1135,278.0022,5.7857e-05,6.33e-06,0.0,0 STARLINK-3568,1 51856U 22022E   23252.45554025  .00000633  00000-0  57857-4 0  9995,2 51856  53.2169 154.3102 0001453  82.1135 278.0022 15.08838617 85339,6917.885,95.438,540.755,538.744,0.0
51856.0,STARLINK-3568,PAYLOAD,2023-09-10 02:49:49,15.08847937,0.000134,53.2167,151.334,83.9732,276.1413,7.1093e-05,8.44e-06,0.0,0 STARLINK-3568,1 51856U 22022E   23253.11793348  .00000844  00000-0  71093-4 0  9994,2 51856  53.2167 151.3340 0001340  83.9732 276.1413 15.08847937 85434,6917.856,95.437,540.648,538.794,0.0
51856.0,STARLINK-3568,PAYLOAD,2023-09-10 23:29:50,15.08841127,0.0001402,53.2163,147.469,94.6913,265.4239,3.8645e-06,-2.26e-06,0.0,0 STARLINK-3568,1 51856U 22022E   23253.97906039 -.00000226  00000-0  38645-5 0  9993,2 51856  53.2163 147.4690 0001402  94.6913 265.4239 15.08841127 85569,6917.877,95.437,540.712,538.772,0.0
51856.0,STARLINK-3568,PAYLOAD,2023-09-11 23:20:37,15.08844028,0.0001197,53.2164,143.0119,84.7851,275.3278,8.548e-05,1.073e-05,0.0,0 STARLINK-3568,1 51856U 22022E   23254.97265571  .00001073  00000-0  85480-4 0  9991,2 51856  53.2164 143.0119 0001197  84.7851 275.3278 15.08844028 85713,6917.868,95.437,540.561,538.905,0.0
51856.0,STARLINK-3568,PAYLOAD,2023-09-12 21:36:02,15.08835505,0.0001365,53.2168,138.8477,92.9638,267.151,1.1827e-05,-1e-06,0.0,0 STARLINK-3568,1 51856U 22022E   23255.90002426 -.00000100  00000-0  11827-4 0  9998,2 51856  53.2168 138.8477 0001365  92.9638 267.1510 15.08835505 85850,6917.894,95.438,540.703,538.815,0.0
